{
  "type": "FeatureCollection",
  "features": [
    {
      "type": "Feature",
      "properties": {
        "norad_id": 43260,
        "name": "GAOFEN-1 03",
        "group": "resource",
        "lat": -22.959641031576616,
        "lon": -148.80566985870504,
        "alt_km": 647.8916897715153,
        "timestamp": "2025-12-02T23:34:15.171208+00:00",
        "meta_object_name": "GAOFEN-1 03",
        "meta_object_id": "2018-031B",
        "meta_epoch": "2025-12-02T12:53:40.018272",
        "meta_mean_motion": 14.76401888,
        "meta_eccentricity": 0.0002687,
        "meta_inclination": 98.0813,
        "meta_ra_of_asc_node": 34.2002,
        "meta_arg_of_pericenter": 1.6022,
        "meta_mean_anomaly": 358.5195,
        "meta_ephemeris_type": 0,
        "meta_classification_type": "U",
        "meta_norad_cat_id": 43260,
        "meta_element_set_no": 999,
        "meta_rev_at_epoch": 41367,
        "meta_bstar": 0.0002017,
        "meta_mean_motion_dot": 1.35e-05,
        "meta_mean_motion_ddot": 0,
        "tle_line1": "1 43260U 18031B   25336.53726873  .00001350  00000+0  20170-3 0  9999",
        "tle_line2": "2 43260  98.0813  34.2002 0002687   1.6022 358.5195 14.76401888413675"
      },
      "geometry": {
        "type": "Point",
        "coordinates": [
          -148.80566985870504,
          -22.959641031576616
        ]
      }
    },
    {
      "type": "Feature",
      "properties": {
        "norad_id": 43262,
        "name": "GAOFEN-1 04",
        "group": "resource",
        "lat": -27.80714994012643,
        "lon": 39.11109542786189,
        "alt_km": 646.4718692501392,
        "timestamp": "2025-12-02T23:34:15.171218+00:00",
        "meta_object_name": "GAOFEN-1 04",
        "meta_object_id": "2018-031D",
        "meta_epoch": "2025-12-02T12:18:43.690752",
        "meta_mean_motion": 14.76414891,
        "meta_eccentricity": 0.0001383,
        "meta_inclination": 98.0822,
        "meta_ra_of_asc_node": 34.3438,
        "meta_arg_of_pericenter": 63.0601,
        "meta_mean_anomaly": 297.0749,
        "meta_ephemeris_type": 0,
        "meta_classification_type": "U",
        "meta_norad_cat_id": 43262,
        "meta_element_set_no": 999,
        "meta_rev_at_epoch": 41366,
        "meta_bstar": 0.00020415,
        "meta_mean_motion_dot": 1.367e-05,
        "meta_mean_motion_ddot": 0,
        "tle_line1": "1 43262U 18031D   25336.51300568  .00001367  00000+0  20415-3 0  9998",
        "tle_line2": "2 43262  98.0822  34.3438 0001383  63.0601 297.0749 14.76414891413667"
      },
      "geometry": {
        "type": "Point",
        "coordinates": [
          39.11109542786189,
          -27.80714994012643
        ]
      }
    },
    {
      "type": "Feature",
      "properties": {
        "norad_id": 43437,
        "name": "SENTINEL-3B",
        "group": "resource",
        "lat": 77.86871579965322,
        "lon": -2.6332297838388747,
        "alt_km": 794.4250462025293,
        "timestamp": "2025-12-02T23:34:15.171228+00:00",
        "meta_object_name": "SENTINEL-3B",
        "meta_object_id": "2018-039A",
        "meta_epoch": "2025-12-02T11:24:31.639680",
        "meta_mean_motion": 14.26736355,
        "meta_eccentricity": 0.0001473,
        "meta_inclination": 98.6281,
        "meta_ra_of_asc_node": 41.8071,
        "meta_arg_of_pericenter": 112.5255,
        "meta_mean_anomaly": 247.6081,
        "meta_ephemeris_type": 0,
        "meta_classification_type": "U",
        "meta_norad_cat_id": 43437,
        "meta_element_set_no": 999,
        "meta_rev_at_epoch": 39607,
        "meta_bstar": 0.00010693,
        "meta_mean_motion_dot": 2.15e-06,
        "meta_mean_motion_ddot": 0,
        "tle_line1": "1 43437U 18039A   25336.47536620  .00000215  00000+0  10693-3 0  9993",
        "tle_line2": "2 43437  98.6281  41.8071 0001473 112.5255 247.6081 14.26736355396079"
      },
      "geometry": {
        "type": "Point",
        "coordinates": [
          -2.6332297838388747,
          77.86871579965322
        ]
      }
    },
    {
      "type": "Feature",
      "properties": {
        "norad_id": 43461,
        "name": "GAOFEN-5 01",
        "group": "resource",
        "lat": -29.91952913719231,
        "lon": -55.32379712478524,
        "alt_km": 696.982677591669,
        "timestamp": "2025-12-02T23:34:15.171238+00:00",
        "meta_object_name": "GAOFEN-5 01",
        "meta_object_id": "2018-043A",
        "meta_epoch": "2025-12-02T10:33:15.427296",
        "meta_mean_motion": 14.60390561,
        "meta_eccentricity": 0.0001633,
        "meta_inclination": 98.4311,
        "meta_ra_of_asc_node": 299.2281,
        "meta_arg_of_pericenter": 12.9863,
        "meta_mean_anomaly": 347.1378,
        "meta_ephemeris_type": 0,
        "meta_classification_type": "U",
        "meta_norad_cat_id": 43461,
        "meta_element_set_no": 999,
        "meta_rev_at_epoch": 40297,
        "meta_bstar": 0.0001498,
        "meta_mean_motion_dot": 6.76e-06,
        "meta_mean_motion_ddot": 0,
        "tle_line1": "1 43461U 18043A   25336.43976189  .00000676  00000+0  14980-3 0  9993",
        "tle_line2": "2 43461  98.4311 299.2281 0001633  12.9863 347.1378 14.60390561402971"
      },
      "geometry": {
        "type": "Point",
        "coordinates": [
          -55.32379712478524,
          -29.91952913719231
        ]
      }
    },
    {
      "type": "Feature",
      "properties": {
        "norad_id": 43484,
        "name": "GAOFEN-6",
        "group": "resource",
        "lat": 59.67055673940524,
        "lon": -124.86510092315903,
        "alt_km": 626.1630896097968,
        "timestamp": "2025-12-02T23:34:15.171248+00:00",
        "meta_object_name": "GAOFEN-6",
        "meta_object_id": "2018-048A",
        "meta_epoch": "2025-12-02T18:09:14.390784",
        "meta_mean_motion": 14.7653518,
        "meta_eccentricity": 0.0013334,
        "meta_inclination": 97.8046,
        "meta_ra_of_asc_node": 41.3582,
        "meta_arg_of_pericenter": 93.1311,
        "meta_mean_anomaly": 267.1425,
        "meta_ephemeris_type": 0,
        "meta_classification_type": "U",
        "meta_norad_cat_id": 43484,
        "meta_element_set_no": 999,
        "meta_rev_at_epoch": 40440,
        "meta_bstar": 7.7445e-05,
        "meta_mean_motion_dot": 4.91e-06,
        "meta_mean_motion_ddot": 0,
        "tle_line1": "1 43484U 18048A   25336.75641656  .00000491  00000+0  77445-4 0  9997",
        "tle_line2": "2 43484  97.8046  41.3582 0013334  93.1311 267.1425 14.76535180404403"
      },
      "geometry": {
        "type": "Point",
        "coordinates": [
          -124.86510092315903,
          59.67055673940524
        ]
      }
    },
    {
      "type": "Feature",
      "properties": {
        "norad_id": 43585,
        "name": "GAOFEN-11 01",
        "group": "resource",
        "lat": -81.13050382769269,
        "lon": 166.35404467803636,
        "alt_km": 427.66016396544364,
        "timestamp": "2025-12-02T23:34:15.171260+00:00",
        "meta_object_name": "GAOFEN-11 01",
        "meta_object_id": "2018-063A",
        "meta_epoch": "2025-12-02T13:07:37.642944",
        "meta_mean_motion": 15.48782121,
        "meta_eccentricity": 0.0005041,
        "meta_inclination": 97.1583,
        "meta_ra_of_asc_node": 39.5696,
        "meta_arg_of_pericenter": 357.132,
        "meta_mean_anomaly": 2.9902,
        "meta_ephemeris_type": 0,
        "meta_classification_type": "U",
        "meta_norad_cat_id": 43585,
        "meta_element_set_no": 999,
        "meta_rev_at_epoch": 40984,
        "meta_bstar": 0.00033084,
        "meta_mean_motion_dot": 0.00017699,
        "meta_mean_motion_ddot": 0,
        "tle_line1": "1 43585U 18063A   25336.54696346  .00017699  00000+0  33084-3 0  9997",
        "tle_line2": "2 43585  97.1583  39.5696 0005041 357.1320   2.9902 15.48782121409845"
      },
      "geometry": {
        "type": "Point",
        "coordinates": [
          166.35404467803636,
          -81.13050382769269
        ]
      }
    },
    {
      "type": "Feature",
      "properties": {
        "norad_id": 43613,
        "name": "ICESAT-2",
        "group": "resource",
        "lat": 12.22308521228972,
        "lon": -122.33166408217134,
        "alt_km": 482.6110673144258,
        "timestamp": "2025-12-02T23:34:15.171271+00:00",
        "meta_object_name": "ICESAT-2",
        "meta_object_id": "2018-070A",
        "meta_epoch": "2025-12-02T10:56:45.209184",
        "meta_mean_motion": 15.28307084,
        "meta_eccentricity": 6.29e-05,
        "meta_inclination": 92.0055,
        "meta_ra_of_asc_node": 237.9613,
        "meta_arg_of_pericenter": 150.8821,
        "meta_mean_anomaly": 209.2464,
        "meta_ephemeris_type": 0,
        "meta_classification_type": "U",
        "meta_norad_cat_id": 43613,
        "meta_element_set_no": 999,
        "meta_rev_at_epoch": 40241,
        "meta_bstar": 0.00057494,
        "meta_mean_motion_dot": 0.00015856,
        "meta_mean_motion_ddot": 0,
        "tle_line1": "1 43613U 18070A   25336.45607881  .00015856  00000+0  57494-3 0  9997",
        "tle_line2": "2 43613  92.0055 237.9613 0000629 150.8821 209.2464 15.28307084402419"
      },
      "geometry": {
        "type": "Point",
        "coordinates": [
          -122.33166408217134,
          12.22308521228972
        ]
      }
    }
  ]
}